CCSDS_OMM_VERS = 2.0
CREATION_DATE  = 
ORIGINATOR     = 

OBJECT_NAME    = STARLINK-36089
OBJECT_ID      = 2025-286Y
CENTER_NAME    = EARTH
REF_FRAME      = TEME
TIME_SYSTEM    = UTC
MEAN_ELEMENT_THEORY = SGP/SGP4

EPOCH          = 2025-12-31T02:07:44.218272
MEAN_MOTION    = 15.49311799
ECCENTRICITY   = .0000861
INCLINATION    = 53.1592
RA_OF_ASC_NODE = 319.9304
ARG_OF_PERICENTER = 73.9643
MEAN_ANOMALY   = 286.1461

EPHEMERIS_TYPE = 0
CLASSIFICATION_TYPE = U
NORAD_CAT_ID   = 66947
ELEMENT_SET_NO = 999
REV_AT_EPOCH   = 487
BSTAR          = .18742E-2
MEAN_MOTION_DOT = .105211E-2
MEAN_MOTION_DDOT = 0

CCSDS_OMM_VERS = 2.0
CREATION_DATE  = 
ORIGINATOR     = 

OBJECT_NAME    = STARLINK-36116
OBJECT_ID      = 2025-286Z
CENTER_NAME    = EARTH
REF_FRAME      = TEME
TIME_SYSTEM    = UTC
MEAN_ELEMENT_THEORY = SGP/SGP4

EPOCH          = 2025-12-31T02:08:15.857088
MEAN_MOTION    = 15.49316527
ECCENTRICITY   = .0001049
INCLINATION    = 53.1595
RA_OF_ASC_NODE = 319.9330
ARG_OF_PERICENTER = 79.0975
MEAN_ANOMALY   = 281.0152

EPHEMERIS_TYPE = 0
CLASSIFICATION_TYPE = U
NORAD_CAT_ID   = 66948
ELEMENT_SET_NO = 999
REV_AT_EPOCH   = 487
BSTAR          = .25615E-2
MEAN_MOTION_DOT = .144717E-2
MEAN_MOTION_DDOT = 0

CCSDS_OMM_VERS = 2.0
CREATION_DATE  = 
ORIGINATOR     = 

OBJECT_NAME    = STARLINK-36096
OBJECT_ID      = 2025-286AA
CENTER_NAME    = EARTH
REF_FRAME      = TEME
TIME_SYSTEM    = UTC
MEAN_ELEMENT_THEORY = SGP/SGP4

EPOCH          = 2025-12-31T02:07:27.746112
MEAN_MOTION    = 15.48324482
ECCENTRICITY   = .0005226
INCLINATION    = 53.1594
RA_OF_ASC_NODE = 319.9289
ARG_OF_PERICENTER = 343.9267
MEAN_ANOMALY   = 16.1575

EPHEMERIS_TYPE = 0
CLASSIFICATION_TYPE = U
NORAD_CAT_ID   = 66949
ELEMENT_SET_NO = 999
REV_AT_EPOCH   = 487
BSTAR          = .2119E-2
MEAN_MOTION_DOT = .115143E-2
MEAN_MOTION_DDOT = 0

CCSDS_OMM_VERS = 2.0
CREATION_DATE  = 
ORIGINATOR     = 

OBJECT_NAME    = STARLINK-36111
OBJECT_ID      = 2025-286AB
CENTER_NAME    = EARTH
REF_FRAME      = TEME
TIME_SYSTEM    = UTC
MEAN_ELEMENT_THEORY = SGP/SGP4

EPOCH          = 2025-12-31T02:06:15.609024
MEAN_MOTION    = 15.49350861
ECCENTRICITY   = .0001105
INCLINATION    = 53.1596
RA_OF_ASC_NODE = 319.9237
ARG_OF_PERICENTER = 64.7750
MEAN_ANOMALY   = 295.3373

EPHEMERIS_TYPE = 0
CLASSIFICATION_TYPE = U
NORAD_CAT_ID   = 66950
ELEMENT_SET_NO = 999
REV_AT_EPOCH   = 487
BSTAR          = .23744E-2
MEAN_MOTION_DOT = .134095E-2
MEAN_MOTION_DDOT = 0

CCSDS_OMM_VERS = 2.0
CREATION_DATE  = 
ORIGINATOR     = 

OBJECT_NAME    = STARLINK-35999
OBJECT_ID      = 2025-286AC
CENTER_NAME    = EARTH
REF_FRAME      = TEME
TIME_SYSTEM    = UTC
MEAN_ELEMENT_THEORY = SGP/SGP4

EPOCH          = 2025-12-31T02:05:45.872736
MEAN_MOTION    = 15.49329642
ECCENTRICITY   = .0001298
INCLINATION    = 53.1597
RA_OF_ASC_NODE = 319.9210
ARG_OF_PERICENTER = 57.7557
MEAN_ANOMALY   = 302.3577

EPHEMERIS_TYPE = 0
CLASSIFICATION_TYPE = U
NORAD_CAT_ID   = 66951
ELEMENT_SET_NO = 999
REV_AT_EPOCH   = 487
BSTAR          = .22824E-2
MEAN_MOTION_DOT = .128693E-2
MEAN_MOTION_DDOT = 0

CCSDS_OMM_VERS = 2.0
CREATION_DATE  = 
ORIGINATOR     = 

OBJECT_NAME    = STARLINK-36122
OBJECT_ID      = 2025-286AD
CENTER_NAME    = EARTH
REF_FRAME      = TEME
TIME_SYSTEM    = UTC
MEAN_ELEMENT_THEORY = SGP/SGP4

EPOCH          = 2025-12-31T02:06:45.150048
MEAN_MOTION    = 15.49334808
ECCENTRICITY   = .0001452
INCLINATION    = 53.1599
RA_OF_ASC_NODE = 319.9261
ARG_OF_PERICENTER = 110.0673
MEAN_ANOMALY   = 250.0492

EPHEMERIS_TYPE = 0
CLASSIFICATION_TYPE = U
NORAD_CAT_ID   = 66952
ELEMENT_SET_NO = 999
REV_AT_EPOCH   = 487
BSTAR          = .25605E-2
MEAN_MOTION_DOT = .144756E-2
MEAN_MOTION_DDOT = 0

CCSDS_OMM_VERS = 2.0
CREATION_DATE  = 
ORIGINATOR     = 

OBJECT_NAME    = HULIANWANG DIGUI-114
OBJECT_ID      = 2025-287A
CENTER_NAME    = EARTH
REF_FRAME      = TEME
TIME_SYSTEM    = UTC
MEAN_ELEMENT_THEORY = SGP/SGP4

EPOCH          = 2025-12-28T09:04:07.484160
MEAN_MOTION    = 13.62060403
ECCENTRICITY   = .00017315
INCLINATION    = 86.4952
RA_OF_ASC_NODE = 340.4811
ARG_OF_PERICENTER = 85.2347
MEAN_ANOMALY   = 274.9006

EPHEMERIS_TYPE = 0
CLASSIFICATION_TYPE = U
NORAD_CAT_ID   = 66953
ELEMENT_SET_NO = 999
REV_AT_EPOCH   = 266
BSTAR          = .30533624E-4
MEAN_MOTION_DOT = .4E-6
MEAN_MOTION_DDOT = 0

CCSDS_OMM_VERS = 2.0
CREATION_DATE  = 
ORIGINATOR     = 

OBJECT_NAME    = HULIANWANG DIGUI-115
OBJECT_ID      = 2025-287B
CENTER_NAME    = EARTH
REF_FRAME      = TEME
TIME_SYSTEM    = UTC
MEAN_ELEMENT_THEORY = SGP/SGP4

EPOCH          = 2025-12-28T07:13:49.821312
MEAN_MOTION    = 13.61926978
ECCENTRICITY   = .00038933
INCLINATION    = 86.4760
RA_OF_ASC_NODE = 340.5489
ARG_OF_PERICENTER = 64.9296
MEAN_ANOMALY   = 295.2263

EPHEMERIS_TYPE = 0
CLASSIFICATION_TYPE = U
NORAD_CAT_ID   = 66954
ELEMENT_SET_NO = 999
REV_AT_EPOCH   = 265
BSTAR          = .30552501E-4
MEAN_MOTION_DOT = .4E-6
MEAN_MOTION_DDOT = 0

CCSDS_OMM_VERS = 2.0
CREATION_DATE  = 
ORIGINATOR     = 

OBJECT_NAME    = HULIANWANG DIGUI-116
OBJECT_ID      = 2025-287C
CENTER_NAME    = EARTH
REF_FRAME      = TEME
TIME_SYSTEM    = UTC
MEAN_ELEMENT_THEORY = SGP/SGP4

EPOCH          = 2025-12-28T07:07:58.282176
MEAN_MOTION    = 13.62405302
ECCENTRICITY   = .00027634
INCLINATION    = 86.4968
RA_OF_ASC_NODE = 340.4874
ARG_OF_PERICENTER = 86.1288
MEAN_ANOMALY   = 274.0183

EPHEMERIS_TYPE = 0
CLASSIFICATION_TYPE = U
NORAD_CAT_ID   = 66955
ELEMENT_SET_NO = 999
REV_AT_EPOCH   = 265
BSTAR          = .21732817E-3
MEAN_MOTION_DOT = .185E-5
MEAN_MOTION_DDOT = 0

CCSDS_OMM_VERS = 2.0
CREATION_DATE  = 
ORIGINATOR     = 

OBJECT_NAME    = HULIANWANG DIGUI-117
OBJECT_ID      = 2025-287D
CENTER_NAME    = EARTH
REF_FRAME      = TEME
TIME_SYSTEM    = UTC
MEAN_ELEMENT_THEORY = SGP/SGP4

EPOCH          = 2025-12-24T22:03:29.281824
MEAN_MOTION    = 13.64670553
ECCENTRICITY   = .00010447
INCLINATION    = 86.4976
RA_OF_ASC_NODE = 341.7257
ARG_OF_PERICENTER = 103.5815
MEAN_ANOMALY   = 256.5458

EPHEMERIS_TYPE = 0
CLASSIFICATION_TYPE = U
NORAD_CAT_ID   = 66956
ELEMENT_SET_NO = 999
REV_AT_EPOCH   = 219
BSTAR          = .9025962E-5
MEAN_MOTION_DOT = .24E-6
MEAN_MOTION_DDOT = 0

CCSDS_OMM_VERS = 2.0
CREATION_DATE  = 
ORIGINATOR     = 

OBJECT_NAME    = HULIANWANG DIGUI-118
OBJECT_ID      = 2025-287E
CENTER_NAME    = EARTH
REF_FRAME      = TEME
TIME_SYSTEM    = UTC
MEAN_ELEMENT_THEORY = SGP/SGP4

EPOCH          = 2025-12-28T12:15:14.560416
MEAN_MOTION    = 13.62673219
ECCENTRICITY   = .00014098
INCLINATION    = 86.4946
RA_OF_ASC_NODE = 340.4177
ARG_OF_PERICENTER = 89.7446
MEAN_ANOMALY   = 270.3872

EPHEMERIS_TYPE = 0
CLASSIFICATION_TYPE = U
NORAD_CAT_ID   = 66957
ELEMENT_SET_NO = 999
REV_AT_EPOCH   = 268
BSTAR          = .21280161E-3
MEAN_MOTION_DOT = .182E-5
MEAN_MOTION_DDOT = 0

CCSDS_OMM_VERS = 2.0
CREATION_DATE  = 
ORIGINATOR     = 

OBJECT_NAME    = CZ-6A R/B
OBJECT_ID      = 2025-287F
CENTER_NAME    = EARTH
REF_FRAME      = TEME
TIME_SYSTEM    = UTC
MEAN_ELEMENT_THEORY = SGP/SGP4

EPOCH          = 2025-12-30T22:09:00.806400
MEAN_MOTION    = 13.94922909
ECCENTRICITY   = .01067754
INCLINATION    = 86.5069
RA_OF_ASC_NODE = 339.1883
ARG_OF_PERICENTER = 47.4394
MEAN_ANOMALY   = 313.5731

EPHEMERIS_TYPE = 0
CLASSIFICATION_TYPE = U
NORAD_CAT_ID   = 66958
ELEMENT_SET_NO = 999
REV_AT_EPOCH   = 307
BSTAR          = .71251124E-4
MEAN_MOTION_DOT = .119E-5
MEAN_MOTION_DDOT = 0

