STARLINK-36089          
1 66947U 25286Y   25365.08870623  .00105211  00000+0  18742-2 0  9993
2 66947  53.1592 319.9304 0000861  73.9643 286.1461 15.49311799  4871
STARLINK-36116          
1 66948U 25286Z   25365.08907242  .00144717  00000+0  25615-2 0  9993
2 66948  53.1595 319.9330 0001049  79.0975 281.0152 15.49316527  4873
STARLINK-36096          
1 66949U 25286AA  25365.08851558  .00115143  00000+0  21190-2 0  9997
2 66949  53.1594 319.9289 0005226 343.9267  16.1575 15.48324482  4878
STARLINK-36111          
1 66950U 25286AB  25365.08768066  .00134095  00000+0  23744-2 0  9994
2 66950  53.1596 319.9237 0001105  64.7750 295.3373 15.49350861  4870
STARLINK-35999          
1 66951U 25286AC  25365.08733649  .00128693  00000+0  22824-2 0  9999
2 66951  53.1597 319.9210 0001298  57.7557 302.3577 15.49329642  4871
STARLINK-36122          
1 66952U 25286AD  25365.08802257  .00144756  00000+0  25605-2 0  9990
2 66952  53.1599 319.9261 0001452 110.0673 250.0492 15.49334808  4879
HULIANWANG DIGUI-114    
1 66953U 25287A   25362.37786440  .00000040  00000+0  30534-4 0  9992
2 66953  86.4952 340.4811 0001731  85.2347 274.9006 13.62060403  2664
HULIANWANG DIGUI-115    
1 66954U 25287B   25362.30127108  .00000040  00000+0  30553-4 0  9997
2 66954  86.4760 340.5489 0003893  64.9296 295.2263 13.61926978  2659
HULIANWANG DIGUI-116    
1 66955U 25287C   25362.29720234  .00000185  00000+0  21733-3 0  9994
2 66955  86.4968 340.4874 0002763  86.1288 274.0183 13.62405302  2659
HULIANWANG DIGUI-117    
1 66956U 25287D   25358.91908891  .00000024  00000+0  90260-5 0  9991
2 66956  86.4976 341.7257 0001044 103.5815 256.5458 13.64670553  2192
HULIANWANG DIGUI-118    
1 66957U 25287E   25362.51058519  .00000182  00000+0  21280-3 0  9995
2 66957  86.4946 340.4177 0001409  89.7446 270.3872 13.62673219  2685
CZ-6A R/B               
1 66958U 25287F   25364.92292600  .00000119  00000+0  71251-4 0  9998
2 66958  86.5069 339.1883 0106775  47.4394 313.5731 13.94922909  3073
